IRIDIUM 7 [-]           
1 24793U 97020B   24069.10785996  .00000585  00000+0  19828-3 0  9997
2 24793  86.4011  11.7203 0002032  91.6915 268.4514 14.35107729405399
IRIDIUM 5 [-]           
1 24795U 97020D   24069.16052130  .00004282  00000+0  41725-3 0  9991
2 24795  86.3904 296.6495 0124602 358.5622   1.5224 14.86481939416239
IRIDIUM 4 [-]           
1 24796U 97020E   24069.10925287  .00000654  00000+0  21850-3 0  9994
2 24796  86.4011   8.9088 0002054  84.4680 275.6751 14.36023577405734
IRIDIUM 914 [-]         
1 24836U 97030A   24068.85131983  .00000802  00000+0  24942-3 0  9993
2 24836  86.3975  18.9767 0001708  32.1924 327.9379 14.39862381540147
IRIDIUM 16 [-]          
1 24841U 97030F   24069.16727680  .00000721  00000+0  23335-3 0  9994
2 24841  86.4035  40.5573 0003656 118.6429 241.5137 14.37746136400427
IRIDIUM 911 [-]         
1 24842U 97030G   24068.85960965  .00000939  00000+0  25623-3 0  9998
2 24842  86.4461  39.8977 0013269 200.1336 159.9345 14.46339552407795
